[{"OBJECT_NAME":"STARLINK-32824","OBJECT_ID":"2025-018M","EPOCH":"2026-03-09T21:38:18.031776","MEAN_MOTION":15.30188443,"ECCENTRICITY":9.957e-5,"INCLINATION":53.1589,"RA_OF_ASC_NODE":308.4072,"ARG_OF_PERICENTER":70.2331,"MEAN_ANOMALY":289.8777,"EPHEMERIS_TYPE":0,"CLASSIFICATION_TYPE":"U","NORAD_CAT_ID":62817,"ELEMENT_SET_NO":999,"REV_AT_EPOCH":6415,"BSTAR":0.00054845188,"MEAN_MOTION_DOT":0.00015913,"MEAN_MOTION_DDOT":0},{"OBJECT_NAME":"CERISE","OBJECT_ID":"1995-033B","EPOCH":"2026-03-09T23:11:27.589056","MEAN_MOTION":15.32047731,"ECCENTRICITY":0.00057118,"INCLINATION":98.325,"RA_OF_ASC_NODE":273.5192,"ARG_OF_PERICENTER":211.8754,"MEAN_ANOMALY":148.214,"EPHEMERIS_TYPE":0,"CLASSIFICATION_TYPE":"U","NORAD_CAT_ID":23606,"ELEMENT_SET_NO":999,"REV_AT_EPOCH":66468,"BSTAR":0.00062940675,"MEAN_MOTION_DOT":0.00019422,"MEAN_MOTION_DDOT":0}]
